SENTINEL-1A             
1 39634U 14016A   26193.53318890  .00000263  00000+0  65401-4 0  9995
2 39634  98.1784 200.6959 0001458  85.1372 274.9994 14.59201033653713
SENTINEL-1C             
1 62261U 24235A   26193.50401928 -.00000221  00000+0 -37084-4 0  9995
2 62261  98.1824 200.4525 0001292  90.4800 269.6548 14.59197102 85107
SENTINEL-1D             
1 66315U 25251A   26193.53845788 -.00000248  00000+0 -42969-4 0  9994
2 66315  98.1831 200.5414 0001402  90.2222 269.9138 14.59196831 36423
