{"fetched_at":"2026-07-12T17:33:03.536Z","source":"https://celestrak.org/NORAD/elements/gp.php?NAME=SENTINEL&FORMAT=JSON","constellation":"sentinel-1","records":[{"OBJECT_NAME":"SENTINEL-1A","OBJECT_ID":"2014-016A","EPOCH":"2026-07-12T12:47:47.520960","CLASSIFICATION_TYPE":"U","MEAN_MOTION":14.59201033,"ECCENTRICITY":0.0001458,"INCLINATION":98.1784,"RA_OF_ASC_NODE":200.6959,"ARG_OF_PERICENTER":85.1372,"MEAN_ANOMALY":274.9994,"EPHEMERIS_TYPE":0,"NORAD_CAT_ID":39634,"ELEMENT_SET_NO":999,"REV_AT_EPOCH":65371,"BSTAR":0.000065401,"MEAN_MOTION_DOT":0.00000263,"MEAN_MOTION_DDOT":0},{"OBJECT_NAME":"SENTINEL-1C","OBJECT_ID":"2024-235A","EPOCH":"2026-07-12T12:05:47.265792","CLASSIFICATION_TYPE":"U","MEAN_MOTION":14.59197102,"ECCENTRICITY":0.0001292,"INCLINATION":98.1824,"RA_OF_ASC_NODE":200.4525,"ARG_OF_PERICENTER":90.48,"MEAN_ANOMALY":269.6548,"EPHEMERIS_TYPE":0,"NORAD_CAT_ID":62261,"ELEMENT_SET_NO":999,"REV_AT_EPOCH":8510,"BSTAR":-0.000037084,"MEAN_MOTION_DOT":-0.00000221,"MEAN_MOTION_DDOT":0},{"OBJECT_NAME":"SENTINEL-1D","OBJECT_ID":"2025-251A","EPOCH":"2026-07-12T12:55:22.760832","CLASSIFICATION_TYPE":"U","MEAN_MOTION":14.59196831,"ECCENTRICITY":0.0001402,"INCLINATION":98.1831,"RA_OF_ASC_NODE":200.5414,"ARG_OF_PERICENTER":90.2222,"MEAN_ANOMALY":269.9138,"EPHEMERIS_TYPE":0,"NORAD_CAT_ID":66315,"ELEMENT_SET_NO":999,"REV_AT_EPOCH":3642,"BSTAR":-0.000042969,"MEAN_MOTION_DOT":-0.00000248,"MEAN_MOTION_DDOT":0}]}
